[{"OBJECT_NAME":"NUSAT-48 (HENRIETTA LEAVITT)","OBJECT_ID":"2024-149AG","EPOCH":"2026-03-09T19:19:17.269536","MEAN_MOTION":15.29812597,"ECCENTRICITY":0.00027538,"INCLINATION":97.3923,"RA_OF_ASC_NODE":150.8264,"ARG_OF_PERICENTER":263.3026,"MEAN_ANOMALY":96.7901,"EPHEMERIS_TYPE":0,"CLASSIFICATION_TYPE":"U","NORAD_CAT_ID":60498,"ELEMENT_SET_NO":999,"REV_AT_EPOCH":8694,"BSTAR":0.00045211745,"MEAN_MOTION_DOT":0.00012988,"MEAN_MOTION_DDOT":0},{"OBJECT_NAME":"STARLINK-36100","OBJECT_ID":"2025-286T","EPOCH":"2026-03-09T23:32:57.232608","MEAN_MOTION":15.30206221,"ECCENTRICITY":0.00014631,"INCLINATION":53.1607,"RA_OF_ASC_NODE":356.935,"ARG_OF_PERICENTER":120.9525,"MEAN_ANOMALY":239.1619,"EPHEMERIS_TYPE":0,"CLASSIFICATION_TYPE":"U","NORAD_CAT_ID":66942,"ELEMENT_SET_NO":999,"REV_AT_EPOCH":1539,"BSTAR":0.00087551696,"MEAN_MOTION_DOT":0.00025666,"MEAN_MOTION_DDOT":0}]
